start=new Date('2022-10-28T00:00:00.000Z').valueOf();
sats=[{"RA_OF_ASC_NODE":"34.4977","MEAN_ELEMENT_THEORY":"SGP4","PERIAPSIS":"546.235","OBJECT_NAME":"STARLINK-1622","OBJECT_TYPE":"PAYLOAD","SITE":"AFETR","NORAD_CAT_ID":"46128","COUNTRY_CODE":"US","INCLINATION":"53.0561","APOAPSIS":"548.145","SEMIMAJOR_AXIS":"6925.325","TLE_LINE1":"1 46128U 20057M   22300.53543899  .00006567  00000-0  45922-3 0  9997","RCS_SIZE":"LARGE","ELEMENT_SET_NO":"999","REV_AT_EPOCH":"12202","CLASSIFICATION_TYPE":"U","ARG_OF_PERICENTER":"86.3011","PERIOD":"95.592","EPHEMERIS_TYPE":"0","REF_FRAME":"TEME","ECCENTRICITY":"0.00013790","MEAN_MOTION_DOT":"0.00006567","BSTAR":"0.00045922000000","FILE":"3635786","TLE_LINE2":"2 46128  53.0561  34.4977 0001379  86.3011 273.8135 15.06407750122027","OBJECT_ID":"2020-057M","MEAN_MOTION_DDOT":"0.0000000000000","MEAN_MOTION":"15.06407750","CENTER_NAME":"EARTH","MEAN_ANOMALY":"273.8135","EPOCH":"2022-10-27T12:51:01.928736","LAUNCH_DATE":"2020-08-18","DECAY_DATE":null,"GP_ID":"216308402","TIME_SYSTEM":"UTC"},{"CENTER_NAME":"EARTH","MEAN_ANOMALY":"264.5433","EPOCH":"2022-10-27T09:02:46.425408","MEAN_MOTION":"15.06398453","DECAY_DATE":null,"LAUNCH_DATE":"2020-08-18","GP_ID":"216301728","TIME_SYSTEM":"UTC","EPHEMERIS_TYPE":"0","PERIOD":"95.592","ECCENTRICITY":"0.00014990","REF_FRAME":"TEME","CLASSIFICATION_TYPE":"U","ELEMENT_SET_NO":"999","REV_AT_EPOCH":"12134","ARG_OF_PERICENTER":"95.5727","OBJECT_ID":"2020-057N","TLE_LINE2":"2 46129  53.0547  35.2206 0001499  95.5727 264.5433 15.06398453121346","MEAN_MOTION_DDOT":"0.0000000000000","MEAN_MOTION_DOT":"0.00002844","BSTAR":"0.00020974000000","FILE":"3635758","APOAPSIS":"548.256","COUNTRY_CODE":"US","INCLINATION":"53.0547","RCS_SIZE":"LARGE","TLE_LINE1":"1 46129U 20057N   22300.37692622  .00002844  00000-0  20974-3 0  9993","SEMIMAJOR_AXIS":"6925.353","NORAD_CAT_ID":"46129","SITE":"AFETR","OBJECT_TYPE":"PAYLOAD","RA_OF_ASC_NODE":"35.2206","PERIAPSIS":"546.180","MEAN_ELEMENT_THEORY":"SGP4","OBJECT_NAME":"STARLINK-1623"},{"EPOCH":"2022-10-27T14:37:09.851520","MEAN_ANOMALY":"297.6056","CENTER_NAME":"EARTH","MEAN_MOTION":"15.06403273","GP_ID":"216333716","TIME_SYSTEM":"UTC","DECAY_DATE":null,"LAUNCH_DATE":"2020-08-18","PERIOD":"95.592","EPHEMERIS_TYPE":"0","ECCENTRICITY":"0.00015690","REF_FRAME":"TEME","ARG_OF_PERICENTER":"62.5092","ELEMENT_SET_NO":"999","CLASSIFICATION_TYPE":"U","REV_AT_EPOCH":"12262","MEAN_MOTION_DDOT":"0.0000000000000","TLE_LINE2":"2 46130  53.0557  34.1695 0001569  62.5092 297.6056 15.06403273122623","OBJECT_ID":"2020-057P","FILE":"3636022","MEAN_MOTION_DOT":"0.00001885","BSTAR":"0.00014541000000","APOAPSIS":"548.290","COUNTRY_CODE":"US","INCLINATION":"53.0557","RCS_SIZE":"LARGE","TLE_LINE1":"1 46130U 20057P   22300.60914180  .00001885  00000-0  14541-3 0  9994","SEMIMAJOR_AXIS":"6925.339","SITE":"AFETR","NORAD_CAT_ID":"46130","OBJECT_TYPE":"PAYLOAD","OBJECT_NAME":"STARLINK-1624","RA_OF_ASC_NODE":"34.1695","MEAN_ELEMENT_THEORY":"SGP4","PERIAPSIS":"546.117"},{"MEAN_MOTION_DDOT":"0.0000000000000","TLE_LINE2":"2 46131  53.0562  54.9999 0001341  86.2124 273.9019 15.06394423122323","OBJECT_ID":"2020-057Q","FILE":"3635758","MEAN_MOTION_DOT":"0.00000972","BSTAR":"0.00008412000000","PERIOD":"95.592","EPHEMERIS_TYPE":"0","ECCENTRICITY":"0.00013410","REF_FRAME":"TEME","ARG_OF_PERICENTER":"86.2124","ELEMENT_SET_NO":"999","CLASSIFICATION_TYPE":"U","REV_AT_EPOCH":"12232","GP_ID":"216302221","TIME_SYSTEM":"UTC","DECAY_DATE":null,"LAUNCH_DATE":"2020-08-18","EPOCH":"2022-10-27T10:09:07.355520","MEAN_ANOMALY":"273.9019","CENTER_NAME":"EARTH","MEAN_MOTION":"15.06394423","SITE":"AFETR","OBJECT_TYPE":"PAYLOAD","NORAD_CAT_ID":"46131","OBJECT_NAME":"STARLINK-1625","RA_OF_ASC_NODE":"54.9999","PERIAPSIS":"546.302","MEAN_ELEMENT_THEORY":"SGP4","RCS_SIZE":"LARGE","TLE_LINE1":"1 46131U 20057Q   22300.42300180  .00000972  00000-0  84120-4 0  9991","SEMIMAJOR_AXIS":"6925.366","APOAPSIS":"548.159","COUNTRY_CODE":"US","INCLINATION":"53.0562"},{"COUNTRY_CODE":"US","INCLINATION":"53.0540","APOAPSIS":"548.123","SEMIMAJOR_AXIS":"6925.341","RCS_SIZE":"LARGE","TLE_LINE1":"1 46132U 20057R   22300.66073965  .00002912  00000-0  21427-3 0  9992","RA_OF_ASC_NODE":"73.9505","PERIAPSIS":"546.289","MEAN_ELEMENT_THEORY":"SGP4","OBJECT_NAME":"STARLINK-1630","OBJECT_TYPE":"PAYLOAD","SITE":"AFETR","NORAD_CAT_ID":"46132","MEAN_MOTION":"15.06402381","CENTER_NAME":"EARTH","EPOCH":"2022-10-27T15:51:27.905760","MEAN_ANOMALY":"254.4967","DECAY_DATE":null,"LAUNCH_DATE":"2020-08-18","TIME_SYSTEM":"UTC","GP_ID":"216332220","CLASSIFICATION_TYPE":"U","ELEMENT_SET_NO":"999","REV_AT_EPOCH":"12208","ARG_OF_PERICENTER":"105.6168","EPHEMERIS_TYPE":"0","PERIOD":"95.592","REF_FRAME":"TEME","ECCENTRICITY":"0.00013240","MEAN_MOTION_DOT":"0.00002912","BSTAR":"0.00021427000000","FILE":"3636022","OBJECT_ID":"2020-057R","TLE_LINE2":"2 46132  53.0540  73.9505 0001324 105.6168 254.4967 15.06402381122081","MEAN_MOTION_DDOT":"0.0000000000000"},{"INCLINATION":"53.0576","COUNTRY_CODE":"US","APOAPSIS":"548.257","SEMIMAJOR_AXIS":"6925.325","TLE_LINE1":"1 46133U 20057S   22300.66073319  .00002044  00000-0  15605-3 0  9993","RCS_SIZE":"LARGE","OBJECT_NAME":"STARLINK-1637","MEAN_ELEMENT_THEORY":"SGP4","PERIAPSIS":"546.123","RA_OF_ASC_NODE":"33.9588","NORAD_CAT_ID":"46133","SITE":"AFETR","OBJECT_TYPE":"PAYLOAD","MEAN_MOTION":"15.06407669","MEAN_ANOMALY":"267.6827","EPOCH":"2022-10-27T15:51:27.347616","CENTER_NAME":"EARTH","TIME_SYSTEM":"UTC","GP_ID":"216332969","DECAY_DATE":null,"LAUNCH_DATE":"2020-08-18","ARG_OF_PERICENTER":"92.4338","ELEMENT_SET_NO":"999","CLASSIFICATION_TYPE":"U","REV_AT_EPOCH":"12263","ECCENTRICITY":"0.00015410","REF_FRAME":"TEME","EPHEMERIS_TYPE":"0","PERIOD":"95.592","FILE":"3636022","BSTAR":"0.00015605000000","MEAN_MOTION_DOT":"0.00002044","MEAN_MOTION_DDOT":"0.0000000000000","OBJECT_ID":"2020-057S","TLE_LINE2":"2 46133  53.0576  33.9588 0001541  92.4338 267.6827 15.06407669122637"},{"RA_OF_ASC_NODE":"34.5316","PERIAPSIS":"546.358","MEAN_ELEMENT_THEORY":"SGP4","OBJECT_NAME":"STARLINK-1638","SITE":"AFETR","OBJECT_TYPE":"PAYLOAD","NORAD_CAT_ID":"46134","SEMIMAJOR_AXIS":"6925.313","TLE_LINE1":"1 46134U 20057T   22300.53078775  .00006528  00000-0  45659-3 0  9994","RCS_SIZE":"LARGE","COUNTRY_CODE":"US","INCLINATION":"53.0554","APOAPSIS":"547.998","MEAN_MOTION_DOT":"0.00006528","BSTAR":"0.00045659000000","FILE":"3635576","OBJECT_ID":"2020-057T","TLE_LINE2":"2 46134  53.0554  34.5316 0001184  90.1567 269.9557 15.06411723122026","MEAN_MOTION_DDOT":"0.0000000000000","ELEMENT_SET_NO":"999","CLASSIFICATION_TYPE":"U","REV_AT_EPOCH":"12202","ARG_OF_PERICENTER":"90.1567","PERIOD":"95.591","EPHEMERIS_TYPE":"0","REF_FRAME":"TEME","ECCENTRICITY":"0.00011840","LAUNCH_DATE":"2020-08-18","DECAY_DATE":null,"TIME_SYSTEM":"UTC","GP_ID":"216278054","MEAN_MOTION":"15.06411723","CENTER_NAME":"EARTH","MEAN_ANOMALY":"269.9557","EPOCH":"2022-10-27T12:44:20.061600"},{"DECAY_DATE":null,"LAUNCH_DATE":"2020-08-18","GP_ID":"216302722","TIME_SYSTEM":"UTC","MEAN_MOTION":"15.06403279","CENTER_NAME":"EARTH","MEAN_ANOMALY":"290.1956","EPOCH":"2022-10-27T09:55:51.442176","BSTAR":"0.00017552000000","MEAN_MOTION_DOT":"0.00002334","FILE":"3635758","TLE_LINE2":"2 46135  53.0559  35.0569 0001543  69.9199 290.1956 15.06403279121342","OBJECT_ID":"2020-057U","MEAN_MOTION_DDOT":"0.0000000000000","ELEMENT_SET_NO":"999","CLASSIFICATION_TYPE":"U","REV_AT_EPOCH":"12134","ARG_OF_PERICENTER":"69.9199","ECCENTRICITY":"0.00015430","REF_FRAME":"TEME","EPHEMERIS_TYPE":"0","PERIOD":"95.592","SEMIMAJOR_AXIS":"6925.339","RCS_SIZE":"LARGE","TLE_LINE1":"1 46135U 20057U   22300.41378984  .00002334  00000-0  17552-3 0  9999","INCLINATION":"53.0559","COUNTRY_CODE":"US","APOAPSIS":"548.272","MEAN_ELEMENT_THEORY":"SGP4","PERIAPSIS":"546.135","RA_OF_ASC_NODE":"35.0569","OBJECT_NAME":"STARLINK-1639","OBJECT_TYPE":"PAYLOAD","SITE":"AFETR","NORAD_CAT_ID":"46135"},{"OBJECT_TYPE":"PAYLOAD","SITE":"AFETR","NORAD_CAT_ID":"46136","OBJECT_NAME":"STARLINK-1643","MEAN_ELEMENT_THEORY":"SGP4","PERIAPSIS":"546.423","RA_OF_ASC_NODE":"64.8151","APOAPSIS":"547.979","INCLINATION":"53.0551","COUNTRY_CODE":"US","RCS_SIZE":"LARGE","TLE_LINE1":"1 46136U 20057V   22300.46168235  .00003985  00000-0  28625-3 0  9997","SEMIMAJOR_AXIS":"6925.336","ECCENTRICITY":"0.00011230","REF_FRAME":"TEME","PERIOD":"95.592","EPHEMERIS_TYPE":"0","ARG_OF_PERICENTER":"77.3825","ELEMENT_SET_NO":"999","CLASSIFICATION_TYPE":"U","REV_AT_EPOCH":"12159","MEAN_MOTION_DDOT":"0.0000000000000","TLE_LINE2":"2 46136  53.0551  64.8151 0001123  77.3825 282.7290 15.06404096121598","OBJECT_ID":"2020-057V","FILE":"3635791","BSTAR":"0.00028625000000","MEAN_MOTION_DOT":"0.00003985","MEAN_ANOMALY":"282.7290","EPOCH":"2022-10-27T11:04:49.355040","CENTER_NAME":"EARTH","MEAN_MOTION":"15.06404096","GP_ID":"216308537","TIME_SYSTEM":"UTC","LAUNCH_DATE":"2020-08-18","DECAY_DATE":null},{"RCS_SIZE":"LARGE","TLE_LINE1":"1 46137U 20057W   22300.74731280  .00006143  00000-0  43045-3 0  9997","SEMIMAJOR_AXIS":"6925.219","APOAPSIS":"548.194","COUNTRY_CODE":"US","INCLINATION":"53.0560","NORAD_CAT_ID":"46137","SITE":"AFETR","OBJECT_TYPE":"PAYLOAD","RA_OF_ASC_NODE":"53.5646","PERIAPSIS":"545.973","MEAN_ELEMENT_THEORY":"SGP4","OBJECT_NAME":"STARLINK-1586","DECAY_DATE":null,"LAUNCH_DATE":"2020-08-18","TIME_SYSTEM":"UTC","GP_ID":"216332470","CENTER_NAME":"EARTH","EPOCH":"2022-10-27T17:56:07.825920","MEAN_ANOMALY":"301.8540","MEAN_MOTION":"15.06442393","OBJECT_ID":"2020-057W","TLE_LINE2":"2 46137  53.0560  53.5646 0001604  58.2605 301.8540 15.06442393121112","MEAN_MOTION_DDOT":"0.0000000000000","MEAN_MOTION_DOT":"0.00006143","BSTAR":"0.00043045000000","FILE":"3636022","EPHEMERIS_TYPE":"0","PERIOD":"95.589","ECCENTRICITY":"0.00016040","REF_FRAME":"TEME","ELEMENT_SET_NO":"999","CLASSIFICATION_TYPE":"U","REV_AT_EPOCH":"12111","ARG_OF_PERICENTER":"58.2605"}];
